NORAD_CAT_ID,OBJECT_NAME,OBJECT_TYPE,EPOCH,MEAN_MOTION,ECCENTRICITY,INCLINATION,RA_OF_ASC_NODE,ARG_OF_PERICENTER,MEAN_ANOMALY,BSTAR,MEAN_MOTION_DOT,MEAN_MOTION_DDOT,TLE_LINE0,TLE_LINE1,TLE_LINE2,SEMIMAJOR_AXIS,PERIOD,APOGEE,PERIGEE,DECAYED
53160.0,STARLINK-4096,PAYLOAD,2023-05-21 20:10:25,15.0882909,9.92e-05,53.2172,75.8676,77.4721,282.6382,-8.367e-05,-1.619e-05,0.0,0 STARLINK-4096,1 53160U 22083AE  23141.84056753 -.00001619  00000-0 -83670-4 0  9996,2 53160  53.2172  75.8676 0000992  77.4721 282.6382 15.08829090 46940,6917.914,95.438,540.465,539.092,0.0
53160.0,STARLINK-4096,PAYLOAD,2023-05-22 02:31:57,15.08826704,0.0001067,53.2171,74.6787,96.454,263.6573,-0.00010197,-1.91e-05,0.0,0 STARLINK-4096,1 53160U 22083AE  23142.10553086 -.00001910  00000-0 -10197-3 0  9994,2 53160  53.2171  74.6787 0001067  96.4540 263.6573 15.08826704 47618,6917.921,95.438,540.524,539.048,0.0
53160.0,STARLINK-4096,PAYLOAD,2023-05-22 12:04:16,15.08835216,0.000121,53.2189,72.8948,93.8137,266.2993,-3.5418e-05,-8.51e-06,0.0,0 STARLINK-4096,1 53160U 22083AE  23142.50296661 -.00000851  00000-0 -35418-4 0  9998,2 53160  53.2189  72.8948 0001210  93.8137 266.2993 15.08835216 47049,6917.895,95.438,540.597,538.923,0.0
53160.0,STARLINK-4096,PAYLOAD,2023-05-23 02:22:43,15.08848887,0.0001134,53.2184,70.2184,89.2464,270.8658,-9.3587e-06,-4.37e-06,0.0,0 STARLINK-4096,1 53160U 22083AE  23143.09911869 -.00000437  00000-0 -93587-5 0  9999,2 53160  53.2184  70.2184 0001134  89.2464 270.8658 15.08848887 47761,6917.853,95.437,540.503,538.934,0.0
53160.0,STARLINK-4096,PAYLOAD,2023-05-23 03:58:06,15.08850416,0.0001143,53.2183,69.9215,98.0746,262.0376,1.7741e-05,-5e-08,0.0,0 STARLINK-4096,1 53160U 22083AE  23143.16535668 -.00000005  00000-0  17741-4 0  9993,2 53160  53.2183  69.9215 0001143  98.0746 262.0376 15.08850416 47144,6917.849,95.437,540.504,538.923,0.0
53160.0,STARLINK-4096,PAYLOAD,2023-05-23 23:02:45,15.08830073,0.0001126,53.2187,66.3531,101.9331,258.1787,0.00016572,2.35e-05,0.0,0 STARLINK-4096,1 53160U 22083AE  23143.96024914  .00002350  00000-0  16572-3 0  9992,2 53160  53.2187  66.3531 0001126 101.9331 258.1787 15.08830073 47896,6917.911,95.438,540.555,538.997,0.0
53160.0,STARLINK-4096,PAYLOAD,2023-05-24 05:24:17,15.08840148,0.0001196,53.2188,65.1643,104.8316,255.2809,0.00020226,2.933e-05,0.0,0 STARLINK-4096,1 53160U 22083AE  23144.22520447  .00002933  00000-0  20226-3 0  9992,2 53160  53.2188  65.1643 0001196 104.8316 255.2809 15.08840148 47932,6917.88,95.438,540.572,538.918,0.0
53160.0,STARLINK-4096,PAYLOAD,2023-05-26 00:19:42,15.08844162,0.0001259,53.2185,57.1342,106.8097,253.3033,5.9437e-05,6.58e-06,0.0,0 STARLINK-4096,1 53160U 22083AE  23146.01368338  .00000658  00000-0  59437-4 0  9999,2 53160  53.2185  57.1342 0001259 106.8097 253.3033 15.08844162 48203,6917.868,95.437,540.604,538.862,0.0
53160.0,STARLINK-4096,PAYLOAD,2023-05-27 00:10:29,15.08837102,0.0001231,53.2183,52.6743,86.6133,273.5,-9.0898e-06,-4.32e-06,0.0,0 STARLINK-4096,1 53160U 22083AE  23147.00729094 -.00000432  00000-0 -90898-5 0  9998,2 53160  53.2183  52.6743 0001231  86.6133 273.5000 15.08837102 48352,6917.889,95.438,540.606,538.903,0.0
53160.0,STARLINK-4096,PAYLOAD,2023-05-27 20:50:30,15.08839334,0.0001189,53.2174,48.8113,75.7027,284.4097,8.802e-05,1.113e-05,0.0,0 STARLINK-4096,1 53160U 22083AE  23147.86840694  .00001113  00000-0  88020-4 0  9990,2 53160  53.2174  48.8113 0001189  75.7027 284.4097 15.08839334 47853,6917.882,95.438,540.57,538.925,0.0
53160.0,STARLINK-4096,PAYLOAD,2023-05-28 00:01:16,15.08848915,0.0001243,53.2181,48.2149,86.435,273.6784,6.3224e-05,7.19e-06,0.0,0 STARLINK-4096,1 53160U 22083AE  23148.00088175  .00000719  00000-0  63224-4 0  9995,2 53160  53.2181  48.2149 0001243  86.4350 273.6784 15.08848915 48504,6917.853,95.437,540.578,538.858,0.0
53160.0,STARLINK-4096,PAYLOAD,2023-05-28 17:30:31,15.0883667,0.0001149,53.2175,44.9449,83.464,276.6483,0.00014999,2.1e-05,0.0,0 STARLINK-4096,1 53160U 22083AE  23148.72952562  .00002100  00000-0  14999-3 0  9994,2 53160  53.2175  44.9449 0001149  83.4640 276.6483 15.08836670 48613,6917.891,95.438,540.55,538.961,0.0
53160.0,STARLINK-4096,PAYLOAD,2023-05-28 20:41:17,15.08842307,0.0001107,53.2176,44.3501,80.2013,279.9104,0.00012004,1.623e-05,0.0,0 STARLINK-4096,1 53160U 22083AE  23148.86200375  .00001623  00000-0  12004-3 0  9991,2 53160  53.2176  44.3501 0001107  80.2013 279.9104 15.08842307 48003,6917.873,95.437,540.504,538.973,0.0
53160.0,STARLINK-4096,PAYLOAD,2023-05-28 23:52:02,15.08848415,0.0001202,53.2188,43.753,85.9217,274.1913,0.00013978,1.938e-05,0.0,0 STARLINK-4096,1 53160U 22083AE  23148.99447875  .00001938  00000-0  13978-3 0  9993,2 53160  53.2188  43.7530 0001202  85.9217 274.1913 15.08848415 48657,6917.855,95.437,540.551,538.888,0.0
53160.0,STARLINK-4096,PAYLOAD,2023-05-29 03:02:49,15.0884893,0.0001149,53.2188,43.1589,85.5161,274.5963,0.0001433,1.994e-05,0.0,0 STARLINK-4096,1 53160U 22083AE  23149.12695782  .00001994  00000-0  14330-3 0  9996,2 53160  53.2188  43.1589 0001149  85.5161 274.5963 15.08848930 48043,6917.853,95.437,540.513,538.923,0.0
53160.0,STARLINK-4096,PAYLOAD,2023-05-29 17:21:19,15.0883048,0.0001026,53.2176,40.4848,90.8093,269.3016,-7.1219e-05,-1.421e-05,0.0,0 STARLINK-4096,1 53160U 22083AE  23149.72313714 -.00001421  00000-0 -71219-4 0  9991,2 53160  53.2176  40.4848 0001026  90.8093 269.3016 15.08830480 48766,6917.909,95.438,540.484,539.065,0.0
53160.0,STARLINK-4096,PAYLOAD,2023-05-29 20:32:05,15.08832388,0.0001144,53.2178,39.8898,96.4278,263.6845,-5.1965e-05,-1.115e-05,0.0,0 STARLINK-4096,1 53160U 22083AE  23149.85561590 -.00001115  00000-0 -51965-4 0  9998,2 53160  53.2178  39.8898 0001144  96.4278 263.6845 15.08832388 48152,6917.904,95.438,540.56,538.977,0.0
53160.0,STARLINK-4096,PAYLOAD,2023-05-29 23:42:51,15.08834814,0.00011,53.2177,39.2952,94.9876,265.1242,-3.079e-05,-7.78e-06,0.0,0 STARLINK-4096,1 53160U 22083AE  23149.98809420 -.00000778  00000-0 -30790-4 0  9996,2 53160  53.2177  39.2952 0001100  94.9876 265.1242 15.08834814 48801,6917.896,95.438,540.522,539.0,0.0
53160.0,STARLINK-4096,PAYLOAD,2023-05-30 21:58:14,15.08842069,0.0001053,53.218,35.1321,99.5783,260.5328,2.2424e-05,6.9e-07,0.0,0 STARLINK-4096,1 53160U 22083AE  23150.91545057  .00000069  00000-0  22424-4 0  9990,2 53160  53.2180  35.1321 0001053  99.5783 260.5328 15.08842069 48316,6917.874,95.437,540.468,539.011,0.0
53160.0,STARLINK-4096,PAYLOAD,2023-05-30 23:33:37,15.08844406,0.0001048,53.218,34.835,100.9023,259.2087,4.7851e-05,4.74e-06,0.0,0 STARLINK-4096,1 53160U 22083AE  23150.98168857  .00000474  00000-0  47851-4 0  9997,2 53160  53.2180  34.8350 0001048 100.9023 259.2087 15.08844406 48956,6917.867,95.437,540.457,539.007,0.0
53160.0,STARLINK-4096,PAYLOAD,2023-05-31 21:49:02,15.08837713,0.0001183,53.2183,30.6731,111.802,248.3098,0.00015498,2.179e-05,0.0,0 STARLINK-4096,1 53160U 22083AE  23151.90905382  .00002179  00000-0  15498-3 0  9997,2 53160  53.2183  30.6731 0001183 111.8020 248.3098 15.08837713 48464,6917.887,95.438,540.571,538.934,0.0
53160.0,STARLINK-4096,PAYLOAD,2023-06-01 00:59:48,15.08842357,0.0001043,53.2167,30.077,103.7124,256.3985,0.0001883,2.71e-05,0.0,0 STARLINK-4096,1 53160U 22083AE  23152.04153147  .00002710  00000-0  18830-3 0  9991,2 53160  53.2167  30.0770 0001043 103.7124 256.3985 15.08842357 49110,6917.873,95.437,540.46,539.017,0.0
53160.0,STARLINK-4096,PAYLOAD,2023-06-01 21:39:49,15.08843509,0.0001042,53.2165,26.2111,90.2216,269.8896,7.2991e-05,8.74e-06,0.0,0 STARLINK-4096,1 53160U 22083AE  23152.90265195  .00000874  00000-0  72991-4 0  9991,2 53160  53.2165  26.2111 0001042  90.2216 269.8896 15.08843509 48619,6917.87,95.437,540.456,539.014,0.0
53160.0,STARLINK-4096,PAYLOAD,2023-06-02 00:50:35,15.08846929,0.0001086,53.2167,25.6161,99.4241,260.6874,0.00011633,1.564e-05,0.0,0 STARLINK-4096,1 53160U 22083AE  23153.03512943  .00001564  00000-0  11633-3 0  9994,2 53160  53.2167  25.6161 0001086  99.4241 260.6874 15.08846929 48632,6917.859,95.437,540.475,538.973,0.0
53160.0,STARLINK-4096,PAYLOAD,2023-06-02 15:09:04,15.08833678,0.0001251,53.2175,22.9386,85.4001,274.7134,-3.8574e-05,-9.02e-06,0.0,0 STARLINK-4096,1 53160U 22083AE  23153.63129959 -.00000902  00000-0 -38574-4 0  9992,2 53160  53.2175  22.9386 0001251  85.4001 274.7134 15.08833678 49355,6917.9,95.438,540.63,538.899,0.0
53160.0,STARLINK-4096,PAYLOAD,2023-06-02 21:30:36,15.08835007,0.0001278,53.217,21.7489,91.4944,268.6194,-1.035e-05,-4.53e-06,0.0,0 STARLINK-4096,1 53160U 22083AE  23153.89625961 -.00000453  00000-0 -10350-4 0  9997,2 53160  53.2170  21.7489 0001278  91.4944 268.6194 15.08835007 48763,6917.896,95.438,540.645,538.877,0.0
53160.0,STARLINK-4096,PAYLOAD,2023-06-03 00:41:23,15.08837437,0.0001214,53.2181,21.1545,87.5385,272.5746,2.4318e-05,9.9e-07,0.0,0 STARLINK-4096,1 53160U 22083AE  23154.02874142  .00000099  00000-0  24318-4 0  9993,2 53160  53.2181  21.1545 0001214  87.5385 272.5746 15.08837437 48785,6917.888,95.438,540.593,538.913,0.0
53160.0,STARLINK-4096,PAYLOAD,2023-06-03 18:10:37,15.08843328,0.0001046,53.2182,17.8838,106.0645,254.0463,0.00012168,1.649e-05,0.0,0 STARLINK-4096,1 53160U 22083AE  23154.75737449  .00001649  00000-0  12168-3 0  9992,2 53160  53.2182  17.8838 0001046 106.0645 254.0463 15.08843328 49522,6917.87,95.437,540.459,539.012,0.0
53160.0,STARLINK-4096,PAYLOAD,2023-06-03 21:21:23,15.0885172,0.0001174,53.2185,17.2891,80.0885,280.024,0.00011333,1.517e-05,0.0,0 STARLINK-4096,1 53160U 22083AE  23154.88985113  .00001517  00000-0  11333-3 0  9996,2 53160  53.2185  17.2891 0001174  80.0885 280.0240 15.08851720 48916,6917.845,95.437,540.522,538.897,0.0
53160.0,STARLINK-4096,PAYLOAD,2023-06-04 00:32:09,15.08852206,0.0001116,53.2172,16.6943,83.4688,276.6431,0.00024613,3.633e-05,0.0,0 STARLINK-4096,1 53160U 22083AE  23155.02233330  .00003633  00000-0  24613-3 0  9996,2 53160  53.2172  16.6943 0001116  83.4688 276.6431 15.08852206 48932,6917.843,95.437,540.48,538.936,0.0
